{
  "norad_id": 67637,
  "name": "STARLINK-36610",
  "history": [
    {
      "epoch": "2026-03-28T21:47:36.629376",
      "apogee_km": 483.6432364301327,
      "perigee_km": 482.22025077270973,
      "latitude_deg": 38.11911765853177,
      "longitude_deg": -49.12596736010164,
      "semi_major_axis_km": 6861.068743601421,
      "eccentricity": 0.0001037,
      "inclination_deg": 43.0016,
      "raan_deg": 31.1639,
      "arg_perigee_deg": 241.5258,
      "mean_anomaly_deg": 118.5489,
      "mean_motion_rev_day": 15.27619192
    },
    {
      "epoch": "2026-03-29T04:04:14.088864",
      "apogee_km": 484.0427630723725,
      "perigee_km": 481.91307300181415,
      "latitude_deg": -1.9993839156478126,
      "longitude_deg": -24.017679039854556,
      "semi_major_axis_km": 6861.114918037093,
      "eccentricity": 0.0001552,
      "inclination_deg": 43.0009,
      "raan_deg": 29.6881,
      "arg_perigee_deg": 277.4278,
      "mean_anomaly_deg": 82.6397,
      "mean_motion_rev_day": 15.27603771
    }
  ]
}